{
  "links" : {
    "next" : "https://api.nasa.gov/neo/rest/v1/feed?start_date=1999-03-09&end_date=1999-03-09&detailed=true&api_key=t0TVs3DtDT2H8Oy2Zy8m2eVrNsAVKAexjcZXUckd",
    "prev" : "https://api.nasa.gov/neo/rest/v1/feed?start_date=1999-03-07&end_date=1999-03-07&detailed=true&api_key=t0TVs3DtDT2H8Oy2Zy8m2eVrNsAVKAexjcZXUckd",
    "self" : "https://api.nasa.gov/neo/rest/v1/feed?start_date=1999-03-08&end_date=1999-03-08&detailed=true&api_key=t0TVs3DtDT2H8Oy2Zy8m2eVrNsAVKAexjcZXUckd"
  },
  "element_count" : 7,
  "near_earth_objects" : {
    "1999-03-08" : [ {
      "links" : {
        "self" : "https://api.nasa.gov/neo/rest/v1/neo/3771023?api_key=t0TVs3DtDT2H8Oy2Zy8m2eVrNsAVKAexjcZXUckd"
      },
      "neo_reference_id" : "3771023",
      "name" : "(2017 EC3)",
      "nasa_jpl_url" : "http://ssd.jpl.nasa.gov/sbdb.cgi?sstr=3771023",
      "absolute_magnitude_h" : 22.5,
      "estimated_diameter" : {
        "kilometers" : {
          "estimated_diameter_min" : 0.0840533402,
          "estimated_diameter_max" : 0.1879489824
        },
        "meters" : {
          "estimated_diameter_min" : 84.0533402073,
          "estimated_diameter_max" : 187.9489824394
        },
        "miles" : {
          "estimated_diameter_min" : 0.0522283081,
          "estimated_diameter_max" : 0.1167860472
        },
        "feet" : {
          "estimated_diameter_min" : 275.7655606856,
          "estimated_diameter_max" : 616.6305395464
        }
      },
      "is_potentially_hazardous_asteroid" : false,
      "close_approach_data" : [ {
        "close_approach_date" : "1999-03-08",
        "epoch_date_close_approach" : 920880000000,
        "relative_velocity" : {
          "kilometers_per_second" : "17.4650244385",
          "kilometers_per_hour" : "62874.0879785089",
          "miles_per_hour" : "39067.5131664241"
        },
        "miss_distance" : {
          "astronomical" : "0.3196340973",
          "lunar" : "124.3376693726",
          "kilometers" : "47816584",
          "miles" : "29711846"
        },
        "orbiting_body" : "Earth"
      } ],
      "orbital_data" : {
        "orbit_id" : "7",
        "orbit_determination_date" : "2017-04-06 08:19:39",
        "orbit_uncertainty" : "6",
        "minimum_orbit_intersection" : ".0703569",
        "jupiter_tisserand_invariant" : "5.317",
        "epoch_osculation" : "2458000.5",
        "eccentricity" : ".3038596157281359",
        "semi_major_axis" : "1.179321692642005",
        "inclination" : "4.250121557975378",
        "ascending_node_longitude" : "74.56844998680567",
        "orbital_period" : "467.7856095555778",
        "perihelion_distance" : ".8209734562959508",
        "perihelion_argument" : "1.588809538965095",
        "aphelion_distance" : "1.53766992898806",
        "perihelion_time" : "2458209.392545464809",
        "mean_anomaly" : "199.2397824320066",
        "mean_motion" : ".7695833147625467",
        "equinox" : "J2000"
      }
    } ]
  }
}